{
  "type": "FeatureCollection",
  "features": [
    {
      "type": "Feature",
      "properties": {
        "route_id": 1,
        "starting_node": "CAM01",
        "ending_node": "CAM02",
        "distance_m": 7757.92,
        "osm_start_node": "10593460312",
        "osm_end_node": "1701428539"
      },
      "geometry": {
        "type": "LineString",
        "coordinates": [
          [
            80.2040121,
            13.0083659
          ],
          [
            80.204052,
            13.0084105
          ],
          [
            80.2040894,
            13.0084333
          ],
          [
            80.2041208,
            13.0084448
          ],
          [
            80.2041754,
            13.0084044
          ],
          [
            80.2042798,
            13.0083416
          ],
          [
            80.2044047,
            13.0082742
          ],
          [
            80.2045652,
            13.0081974
          ],
          [
            80.2047571,
            13.0081051
          ],
          [
            80.2049078,
            13.0080412
          ],
          [
            80.2050906,
            13.0079673
          ],
          [
            80.2052068,
            13.0079287
          ],
          [
            80.2053643,
            13.0078862
          ],
          [
            80.2055142,
            13.0078569
          ],
          [
            80.2057468,
            13.00782
          ],
          [
            80.2060181,
            13.0078053
          ],
          [
            80.2061372,
            13.0077549
          ],
          [
            80.2061468,
            13.007757
          ],
          [
            80.2065299,
            13.0078414
          ],
          [
            80.2070512,
            13.0079177
          ],
          [
            80.2072355,
            13.0079447
          ],
          [
            80.2086623,
            13.0081478
          ],
          [
            80.2093351,
            13.0082622
          ],
          [
            80.2099739,
            13.008448
          ],
          [
            80.2103263,
            13.0085663
          ],
          [
            80.2110096,
            13.009488
          ],
          [
            80.2119129,
            13.0105983
          ],
          [
            80.2127064,
            13.0116289
          ],
          [
            80.2128717,
            13.0118396
          ],
          [
            80.2133416,
            13.0124819
          ],
          [
            80.2135841,
            13.0129055
          ],
          [
            80.2143479,
            13.01424
          ],
          [
            80.214607,
            13.0146649
          ],
          [
            80.2148436,
            13.0150659
          ],
          [
            80.215294,
            13.0157549
          ],
          [
            80.215384,
            13.0158926
          ],
          [
            80.2154695,
            13.0160317
          ],
          [
            80.2155289,
            13.0160983
          ],
          [
            80.2156029,
            13.0161612
          ],
          [
            80.2156617,
            13.0162058
          ],
          [
            80.2157009,
            13.0162347
          ],
          [
            80.2157524,
            13.0162701
          ],
          [
            80.2158395,
            13.0163263
          ],
          [
            80.2159154,
            13.0163667
          ],
          [
            80.2160053,
            13.0164193
          ],
          [
            80.2162891,
            13.0165582
          ],
          [
            80.2165251,
            13.0166697
          ],
          [
            80.2167029,
            13.0167619
          ],
          [
            80.2169569,
            13.0169073
          ],
          [
            80.2179879,
            13.0175929
          ],
          [
            80.218048,
            13.0176371
          ],
          [
            80.218107,
            13.017685
          ],
          [
            80.2181731,
            13.0177485
          ],
          [
            80.2182677,
            13.0178465
          ],
          [
            80.2187109,
            13.0183082
          ],
          [
            80.218775,
            13.0183734
          ],
          [
            80.2191247,
            13.0187638
          ],
          [
            80.219281,
            13.018969
          ],
          [
            80.2195154,
            13.0193299
          ],
          [
            80.2196381,
            13.0194083
          ],
          [
            80.2197779,
            13.0194754
          ],
          [
            80.2202577,
            13.0197353
          ],
          [
            80.2203518,
            13.0197917
          ],
          [
            80.220801,
            13.0200056
          ],
          [
            80.2210981,
            13.0201566
          ],
          [
            80.2211525,
            13.02019
          ],
          [
            80.2214246,
            13.0203382
          ],
          [
            80.2216892,
            13.0204883
          ],
          [
            80.222145,
            13.020725
          ],
          [
            80.2227731,
            13.021074
          ],
          [
            80.2233565,
            13.0214056
          ],
          [
            80.224084,
            13.0217836
          ],
          [
            80.2242678,
            13.0218969
          ],
          [
            80.2246275,
            13.0220622
          ],
          [
            80.2250033,
            13.0222655
          ],
          [
            80.2251117,
            13.0223297
          ],
          [
            80.2253906,
            13.0225027
          ],
          [
            80.2254897,
            13.0225576
          ],
          [
            80.2257834,
            13.0227052
          ],
          [
            80.2261725,
            13.0229139
          ],
          [
            80.227212,
            13.0234005
          ],
          [
            80.2274963,
            13.0235682
          ],
          [
            80.2276579,
            13.0237236
          ],
          [
            80.2277999,
            13.0238688
          ],
          [
            80.2279945,
            13.0240432
          ],
          [
            80.2281587,
            13.0241876
          ],
          [
            80.2283854,
            13.0243722
          ],
          [
            80.2284818,
            13.0244507
          ],
          [
            80.2289552,
            13.0247164
          ],
          [
            80.2291219,
            13.024843
          ],
          [
            80.2294211,
            13.025082
          ],
          [
            80.2297556,
            13.0253248
          ],
          [
            80.2298378,
            13.0253817
          ],
          [
            80.2302838,
            13.0256904
          ],
          [
            80.2302949,
            13.025697
          ],
          [
            80.23066,
            13.0258632
          ],
          [
            80.2307221,
            13.0258833
          ],
          [
            80.2307774,
            13.0259011
          ],
          [
            80.2309631,
            13.0259611
          ],
          [
            80.2309738,
            13.0259646
          ],
          [
            80.2313679,
            13.0260918
          ],
          [
            80.2315524,
            13.0261452
          ],
          [
            80.2317095,
            13.026211
          ],
          [
            80.2319003,
            13.0262609
          ],
          [
            80.2320861,
            13.0263105
          ],
          [
            80.2322719,
            13.0263731
          ],
          [
            80.2323209,
            13.0263877
          ],
          [
            80.2325211,
            13.0264641
          ],
          [
            80.2325543,
            13.0264752
          ],
          [
            80.2328021,
            13.0265804
          ],
          [
            80.2329458,
            13.0266409
          ],
          [
            80.2330185,
            13.0266853
          ],
          [
            80.2343838,
            13.0275158
          ],
          [
            80.2346033,
            13.0276276
          ],
          [
            80.2353917,
            13.0280247
          ],
          [
            80.235676,
            13.0282831
          ],
          [
            80.2363591,
            13.0289038
          ],
          [
            80.2368471,
            13.029344
          ],
          [
            80.2368665,
            13.0293598
          ],
          [
            80.2373179,
            13.0297955
          ],
          [
            80.2377393,
            13.0300698
          ],
          [
            80.2371813,
            13.0311257
          ],
          [
            80.2371576,
            13.0311621
          ],
          [
            80.2371184,
            13.0311541
          ],
          [
            80.2370785,
            13.0311585
          ],
          [
            80.2370421,
            13.0311747
          ],
          [
            80.2370128,
            13.0312013
          ],
          [
            80.2369935,
            13.0312355
          ],
          [
            80.2369861,
            13.0312739
          ],
          [
            80.2369888,
            13.0313106
          ],
          [
            80.237,
            13.0313333
          ],
          [
            80.237014,
            13.031356
          ],
          [
            80.2370427,
            13.0313797
          ],
          [
            80.2370807,
            13.0313961
          ],
          [
            80.237122,
            13.0313997
          ],
          [
            80.2371105,
            13.0314835
          ],
          [
            80.2371071,
            13.0315793
          ],
          [
            80.2370856,
            13.0317811
          ],
          [
            80.2370632,
            13.0319889
          ],
          [
            80.238891,
            13.0323428
          ],
          [
            80.2383291,
            13.0332055
          ],
          [
            80.2381716,
            13.0334551
          ],
          [
            80.2382686,
            13.0335189
          ],
          [
            80.2383718,
            13.0335811
          ],
          [
            80.2388298,
            13.0338572
          ],
          [
            80.2390372,
            13.033986
          ],
          [
            80.2392501,
            13.034095
          ],
          [
            80.2393495,
            13.0340883
          ],
          [
            80.2394011,
            13.0340849
          ],
          [
            80.2398337,
            13.0340082
          ],
          [
            80.240569,
            13.0339079
          ],
          [
            80.2407087,
            13.033872
          ],
          [
            80.2410743,
            13.0335706
          ],
          [
            80.2414446,
            13.033962
          ],
          [
            80.2422221,
            13.0349146
          ],
          [
            80.242443,
            13.0353652
          ],
          [
            80.2426465,
            13.0358253
          ],
          [
            80.2426967,
            13.0359729
          ],
          [
            80.2428042,
            13.036267
          ],
          [
            80.2429324,
            13.0368088
          ],
          [
            80.2429565,
            13.0369445
          ],
          [
            80.2429648,
            13.0369957
          ],
          [
            80.2429928,
            13.0371693
          ],
          [
            80.2429965,
            13.0371976
          ],
          [
            80.2430211,
            13.0373517
          ],
          [
            80.243074,
            13.0377661
          ],
          [
            80.243199,
            13.0383211
          ],
          [
            80.2432636,
            13.0385009
          ],
          [
            80.2432795,
            13.0385315
          ],
          [
            80.2434101,
            13.0390602
          ],
          [
            80.2435363,
            13.0392802
          ],
          [
            80.243532,
            13.0393406
          ],
          [
            80.2436035,
            13.039477
          ],
          [
            80.2438385,
            13.0399526
          ],
          [
            80.2438308,
            13.039961
          ],
          [
            80.243824,
            13.0399933
          ],
          [
            80.2438348,
            13.0400245
          ],
          [
            80.2438603,
            13.040046
          ],
          [
            80.2438926,
            13.0400524
          ],
          [
            80.2439241,
            13.0400418
          ],
          [
            80.243981,
            13.0402207
          ],
          [
            80.2439961,
            13.0402735
          ],
          [
            80.2440109,
            13.0403326
          ],
          [
            80.2440309,
            13.0404211
          ],
          [
            80.2441641,
            13.041056
          ],
          [
            80.2441831,
            13.0411677
          ],
          [
            80.2443715,
            13.0421835
          ],
          [
            80.2445012,
            13.0428835
          ],
          [
            80.2445327,
            13.0430538
          ],
          [
            80.2445937,
            13.043383
          ],
          [
            80.2447273,
            13.0440371
          ],
          [
            80.2447456,
            13.044124
          ],
          [
            80.2450106,
            13.045421
          ],
          [
            80.2450561,
            13.045695
          ],
          [
            80.2450693,
            13.0457609
          ],
          [
            80.2450981,
            13.0459045
          ],
          [
            80.2451171,
            13.0460251
          ],
          [
            80.2451365,
            13.0460849
          ],
          [
            80.2451589,
            13.046228
          ],
          [
            80.245202,
            13.0464668
          ],
          [
            80.2452052,
            13.0464857
          ],
          [
            80.2452268,
            13.046614
          ],
          [
            80.2452606,
            13.0468146
          ],
          [
            80.245267,
            13.0468524
          ],
          [
            80.2452843,
            13.0469549
          ],
          [
            80.2452959,
            13.0470238
          ],
          [
            80.2453612,
            13.0474112
          ],
          [
            80.2453868,
            13.0476972
          ],
          [
            80.2453916,
            13.0478004
          ],
          [
            80.2453961,
            13.0478914
          ],
          [
            80.2453569,
            13.0479723
          ],
          [
            80.2455078,
            13.0480579
          ],
          [
            80.2458483,
            13.0482864
          ],
          [
            80.2461505,
            13.0485188
          ],
          [
            80.2462767,
            13.0486304
          ],
          [
            80.2466569,
            13.0489639
          ],
          [
            80.2468333,
            13.0490968
          ],
          [
            80.2469772,
            13.0491993
          ],
          [
            80.247162,
            13.0493144
          ],
          [
            80.2472281,
            13.0493556
          ],
          [
            80.247566,
            13.0495744
          ],
          [
            80.2477805,
            13.0497034
          ],
          [
            80.2483631,
            13.0501852
          ],
          [
            80.2488699,
            13.0506545
          ]
        ]
      }
    },
    {
      "type": "Feature",
      "properties": {
        "route_id": 2,
        "starting_node": "CAM01",
        "ending_node": "CAM06",
        "distance_m": 5599.29,
        "osm_start_node": "391852241",
        "osm_end_node": "338406531"
      },
      "geometry": {
        "type": "LineString",
        "coordinates": [
          [
            80.205247,
            13.0057538
          ],
          [
            80.2052883,
            13.0054845
          ],
          [
            80.2053407,
            13.005069
          ],
          [
            80.2053897,
            13.0047535
          ],
          [
            80.2054822,
            13.004096
          ],
          [
            80.2055152,
            13.0035492
          ],
          [
            80.2058275,
            13.003593
          ],
          [
            80.2060567,
            13.0035681
          ],
          [
            80.2060916,
            13.0035628
          ],
          [
            80.2066392,
            13.0035188
          ],
          [
            80.2067346,
            13.0035111
          ],
          [
            80.2069119,
            13.0034968
          ],
          [
            80.207029,
            13.0034908
          ],
          [
            80.2074648,
            13.0034952
          ],
          [
            80.2077124,
            13.0034961
          ],
          [
            80.2079546,
            13.003605
          ],
          [
            80.2081021,
            13.0036788
          ],
          [
            80.2085221,
            13.0040454
          ],
          [
            80.2087281,
            13.0044233
          ],
          [
            80.2087717,
            13.0045012
          ],
          [
            80.2088955,
            13.0047915
          ],
          [
            80.2089508,
            13.004909
          ],
          [
            80.2091088,
            13.0052353
          ],
          [
            80.2092001,
            13.0054329
          ],
          [
            80.2092655,
            13.0055906
          ],
          [
            80.2093715,
            13.0058797
          ],
          [
            80.2094516,
            13.0060847
          ],
          [
            80.2094706,
            13.0060792
          ],
          [
            80.2094986,
            13.0060709
          ],
          [
            80.2094738,
            13.0060066
          ],
          [
            80.2092556,
            13.0054027
          ],
          [
            80.2090013,
            13.0048197
          ],
          [
            80.2088749,
            13.004571
          ],
          [
            80.2087411,
            13.0043033
          ],
          [
            80.2086755,
            13.0041694
          ],
          [
            80.2086221,
            13.0040087
          ],
          [
            80.2086153,
            13.0039609
          ],
          [
            80.2086161,
            13.0039141
          ],
          [
            80.2086222,
            13.0038657
          ],
          [
            80.2086489,
            13.0038175
          ],
          [
            80.2086864,
            13.0037705
          ],
          [
            80.2087365,
            13.0037381
          ],
          [
            80.2088048,
            13.0037047
          ],
          [
            80.2089315,
            13.0036677
          ],
          [
            80.2092323,
            13.0036074
          ],
          [
            80.2094977,
            13.0035656
          ],
          [
            80.2097236,
            13.0035498
          ],
          [
            80.2098851,
            13.0035553
          ],
          [
            80.2112851,
            13.0037404
          ],
          [
            80.2115039,
            13.0037947
          ],
          [
            80.2118654,
            13.003795
          ],
          [
            80.2119457,
            13.0037973
          ],
          [
            80.2120421,
            13.0037866
          ],
          [
            80.2120362,
            13.003711
          ],
          [
            80.2120106,
            13.0036069
          ],
          [
            80.2120446,
            13.0034575
          ],
          [
            80.2120627,
            13.0033246
          ],
          [
            80.2120788,
            13.0030788
          ],
          [
            80.212101,
            13.0027314
          ],
          [
            80.2121087,
            13.002593
          ],
          [
            80.2121142,
            13.0025385
          ],
          [
            80.212303,
            13.0021538
          ],
          [
            80.2123313,
            13.0020932
          ],
          [
            80.2124042,
            13.0019842
          ],
          [
            80.212453,
            13.0019136
          ],
          [
            80.212507,
            13.0018355
          ],
          [
            80.2129549,
            13.0012192
          ],
          [
            80.2130865,
            13.0010573
          ],
          [
            80.2131158,
            13.001018
          ],
          [
            80.2131985,
            13.0009268
          ],
          [
            80.2132959,
            13.000809
          ],
          [
            80.2135615,
            13.0004962
          ],
          [
            80.213875,
            13.0001393
          ],
          [
            80.2141515,
            12.9998346
          ],
          [
            80.2142625,
            12.9996978
          ],
          [
            80.2147506,
            12.9991525
          ],
          [
            80.2147692,
            12.9991317
          ],
          [
            80.214772,
            12.9991286
          ],
          [
            80.2149254,
            12.9989537
          ],
          [
            80.2152641,
            12.9985674
          ],
          [
            80.215538,
            12.9982777
          ],
          [
            80.2160004,
            12.9977277
          ],
          [
            80.2161324,
            12.9975774
          ],
          [
            80.2162638,
            12.997438
          ],
          [
            80.2163862,
            12.9973247
          ],
          [
            80.2164696,
            12.9972581
          ],
          [
            80.2165504,
            12.9972089
          ],
          [
            80.2165526,
            12.9971743
          ],
          [
            80.2165718,
            12.9967043
          ],
          [
            80.2166104,
            12.9963977
          ],
          [
            80.2166746,
            12.9960839
          ],
          [
            80.2167353,
            12.9958058
          ],
          [
            80.2169,
            12.9953837
          ],
          [
            80.2169662,
            12.9952475
          ],
          [
            80.2172513,
            12.9948205
          ],
          [
            80.2195487,
            12.9916507
          ],
          [
            80.2195977,
            12.9915857
          ],
          [
            80.2196713,
            12.9914896
          ],
          [
            80.2197766,
            12.9913568
          ],
          [
            80.2200334,
            12.9910125
          ],
          [
            80.2206945,
            12.990178
          ],
          [
            80.2207226,
            12.9901027
          ],
          [
            80.2208592,
            12.9899415
          ],
          [
            80.2209708,
            12.989835
          ],
          [
            80.2211671,
            12.989668
          ],
          [
            80.2213262,
            12.9895414
          ],
          [
            80.2214745,
            12.9894189
          ],
          [
            80.2216446,
            12.9892802
          ],
          [
            80.2220104,
            12.9889818
          ],
          [
            80.2221549,
            12.9888707
          ],
          [
            80.2221745,
            12.9888541
          ],
          [
            80.222389,
            12.9886732
          ],
          [
            80.2223986,
            12.9886651
          ],
          [
            80.2227406,
            12.9882717
          ],
          [
            80.2229244,
            12.9880352
          ],
          [
            80.2230558,
            12.9878444
          ],
          [
            80.223065,
            12.9878213
          ],
          [
            80.2230746,
            12.9877973
          ],
          [
            80.2230826,
            12.9877398
          ],
          [
            80.2230974,
            12.9876327
          ],
          [
            80.2230821,
            12.9873016
          ],
          [
            80.2230567,
            12.9870692
          ],
          [
            80.2229705,
            12.9864666
          ],
          [
            80.2229732,
            12.9861768
          ],
          [
            80.2229796,
            12.9859715
          ],
          [
            80.2230311,
            12.9857206
          ],
          [
            80.2233142,
            12.9854614
          ],
          [
            80.2233058,
            12.985361
          ],
          [
            80.2232618,
            12.9851127
          ],
          [
            80.2232491,
            12.9850804
          ],
          [
            80.2235464,
            12.9850245
          ],
          [
            80.2235659,
            12.9850187
          ],
          [
            80.2235762,
            12.985013
          ],
          [
            80.2235864,
            12.9850025
          ],
          [
            80.2235938,
            12.9849885
          ],
          [
            80.2235943,
            12.9848658
          ],
          [
            80.2236062,
            12.9848381
          ],
          [
            80.2236311,
            12.984813
          ],
          [
            80.223656,
            12.9848043
          ],
          [
            80.2237835,
            12.9848023
          ],
          [
            80.2242405,
            12.9847953
          ],
          [
            80.2242615,
            12.9838423
          ],
          [
            80.2242769,
            12.9832438
          ],
          [
            80.2236363,
            12.9832338
          ],
          [
            80.2236553,
            12.9825453
          ],
          [
            80.2236826,
            12.9818565
          ],
          [
            80.2237031,
            12.9813456
          ],
          [
            80.2237221,
            12.9807753
          ],
          [
            80.223748,
            12.9804221
          ],
          [
            80.2237599,
            12.9801331
          ],
          [
            80.2237868,
            12.9795119
          ],
          [
            80.2244906,
            12.9795298
          ],
          [
            80.2244896,
            12.9790009
          ],
          [
            80.2244943,
            12.9786684
          ],
          [
            80.2246281,
            12.9787367
          ],
          [
            80.2248509,
            12.9788483
          ],
          [
            80.2250409,
            12.9784922
          ],
          [
            80.2250841,
            12.9783943
          ],
          [
            80.2251037,
            12.9784056
          ],
          [
            80.2251212,
            12.9784157
          ],
          [
            80.225212,
            12.9784681
          ],
          [
            80.2252635,
            12.9783717
          ],
          [
            80.2251796,
            12.978324
          ],
          [
            80.2251603,
            12.978313
          ],
          [
            80.2250556,
            12.9782554
          ],
          [
            80.2249459,
            12.9781573
          ],
          [
            80.2246961,
            12.9780111
          ],
          [
            80.223619,
            12.9773685
          ],
          [
            80.2231068,
            12.9770557
          ],
          [
            80.2227846,
            12.976858
          ],
          [
            80.2225008,
            12.9767005
          ],
          [
            80.2222642,
            12.976552
          ],
          [
            80.2221094,
            12.9764588
          ],
          [
            80.2217575,
            12.9762417
          ],
          [
            80.2218618,
            12.9760699
          ],
          [
            80.2219323,
            12.975819
          ],
          [
            80.2219418,
            12.9757854
          ],
          [
            80.2219517,
            12.9757501
          ]
        ]
      }
    },
    {
      "type": "Feature",
      "properties": {
        "route_id": 3,
        "starting_node": "CAM06",
        "ending_node": "CAM04",
        "distance_m": 3617.38,
        "osm_start_node": "338406544",
        "osm_end_node": "1275642278"
      },
      "geometry": {
        "type": "LineString",
        "coordinates": [
          [
            80.2231874,
            12.9748906
          ],
          [
            80.2233897,
            12.97491
          ],
          [
            80.2233983,
            12.9749097
          ],
          [
            80.2234055,
            12.974906
          ],
          [
            80.2234083,
            12.9748968
          ],
          [
            80.2234082,
            12.9748862
          ],
          [
            80.2234069,
            12.9747411
          ],
          [
            80.2242575,
            12.9747864
          ],
          [
            80.2243125,
            12.9747893
          ],
          [
            80.2250848,
            12.9748448
          ],
          [
            80.2260006,
            12.9748515
          ],
          [
            80.2264216,
            12.9748861
          ],
          [
            80.226806,
            12.9749176
          ],
          [
            80.2269974,
            12.974934
          ],
          [
            80.2271631,
            12.9749469
          ],
          [
            80.2272402,
            12.9743328
          ],
          [
            80.2276306,
            12.9743171
          ],
          [
            80.2279979,
            12.9743239
          ],
          [
            80.2281127,
            12.974331
          ],
          [
            80.2284119,
            12.9743414
          ],
          [
            80.2290345,
            12.9745193
          ],
          [
            80.2290902,
            12.9742782
          ],
          [
            80.2290981,
            12.9742439
          ],
          [
            80.2291262,
            12.9740286
          ],
          [
            80.2291824,
            12.973822
          ],
          [
            80.2292033,
            12.9738073
          ],
          [
            80.2292218,
            12.9737974
          ],
          [
            80.2292537,
            12.9737843
          ],
          [
            80.2293111,
            12.9737547
          ],
          [
            80.2293804,
            12.9737294
          ],
          [
            80.2294603,
            12.9738764
          ],
          [
            80.2297986,
            12.974254
          ],
          [
            80.2301456,
            12.9746028
          ],
          [
            80.2311357,
            12.9755596
          ],
          [
            80.2316611,
            12.9760923
          ],
          [
            80.2323507,
            12.976759
          ],
          [
            80.232428,
            12.9768237
          ],
          [
            80.2326424,
            12.977003
          ],
          [
            80.2327974,
            12.9770702
          ],
          [
            80.23291,
            12.9770751
          ],
          [
            80.2329924,
            12.9770791
          ],
          [
            80.2329955,
            12.9770244
          ],
          [
            80.2330164,
            12.976653
          ],
          [
            80.2330235,
            12.9765983
          ],
          [
            80.2330725,
            12.9766115
          ],
          [
            80.2330928,
            12.9765425
          ],
          [
            80.2331145,
            12.9765284
          ],
          [
            80.2333607,
            12.9765213
          ],
          [
            80.2340295,
            12.9765597
          ],
          [
            80.2352091,
            12.9765363
          ],
          [
            80.2358137,
            12.9765273
          ],
          [
            80.2364723,
            12.9765002
          ],
          [
            80.2374624,
            12.9764082
          ],
          [
            80.2374816,
            12.9766127
          ],
          [
            80.2386435,
            12.9765901
          ],
          [
            80.2405336,
            12.9766256
          ],
          [
            80.2408299,
            12.9766644
          ],
          [
            80.2419939,
            12.9766971
          ],
          [
            80.2436317,
            12.9767453
          ],
          [
            80.2434956,
            12.977295
          ],
          [
            80.2434498,
            12.977483
          ],
          [
            80.2435328,
            12.9775036
          ],
          [
            80.2437057,
            12.9767801
          ],
          [
            80.2439694,
            12.9756886
          ],
          [
            80.2441501,
            12.975725
          ],
          [
            80.2443668,
            12.9757148
          ],
          [
            80.2445367,
            12.975692
          ],
          [
            80.2465329,
            12.9751106
          ],
          [
            80.2466003,
            12.9753218
          ],
          [
            80.2470675,
            12.9751789
          ],
          [
            80.2471192,
            12.9751642
          ],
          [
            80.2471413,
            12.9751564
          ],
          [
            80.2471659,
            12.9751556
          ],
          [
            80.2471826,
            12.9751616
          ],
          [
            80.2471997,
            12.9751717
          ],
          [
            80.2472128,
            12.9751897
          ],
          [
            80.2477886,
            12.9771666
          ],
          [
            80.2481953,
            12.9770148
          ],
          [
            80.2483548,
            12.977521
          ]
        ]
      }
    },
    {
      "type": "Feature",
      "properties": {
        "route_id": 4,
        "starting_node": "CAM03",
        "ending_node": "CAM04",
        "distance_m": 3560.6,
        "osm_start_node": "11941450279",
        "osm_end_node": "6774619437"
      },
      "geometry": {
        "type": "LineString",
        "coordinates": [
          [
            80.2475229,
            13.0039987
          ],
          [
            80.2475947,
            13.0034175
          ],
          [
            80.2477773,
            13.0023938
          ],
          [
            80.2480228,
            13.0014652
          ],
          [
            80.2481599,
            13.000907
          ],
          [
            80.2484104,
            12.9998869
          ],
          [
            80.248579,
            12.9992002
          ],
          [
            80.2488385,
            12.9981705
          ],
          [
            80.2489887,
            12.9974713
          ],
          [
            80.2497522,
            12.9945094
          ],
          [
            80.2497747,
            12.9944221
          ],
          [
            80.2497996,
            12.9943257
          ],
          [
            80.2498244,
            12.9942293
          ],
          [
            80.25041,
            12.9919348
          ],
          [
            80.2504728,
            12.9916856
          ],
          [
            80.2506166,
            12.9911149
          ],
          [
            80.2507287,
            12.99067
          ],
          [
            80.2507505,
            12.9905835
          ],
          [
            80.2511922,
            12.9888237
          ],
          [
            80.251317,
            12.9883249
          ],
          [
            80.2514186,
            12.9879188
          ],
          [
            80.2514435,
            12.9878116
          ],
          [
            80.2514698,
            12.9877203
          ],
          [
            80.251599,
            12.987272
          ],
          [
            80.2518505,
            12.9862977
          ],
          [
            80.2521534,
            12.9850757
          ],
          [
            80.2521848,
            12.984954
          ],
          [
            80.2521962,
            12.98491
          ],
          [
            80.2522179,
            12.9848258
          ],
          [
            80.2522404,
            12.9847385
          ],
          [
            80.2522465,
            12.984714
          ],
          [
            80.2526117,
            12.983259
          ],
          [
            80.2526566,
            12.9828403
          ],
          [
            80.2526657,
            12.9827397
          ],
          [
            80.2526935,
            12.9819971
          ],
          [
            80.2527321,
            12.9808426
          ],
          [
            80.2527349,
            12.9807585
          ],
          [
            80.2527409,
            12.9804735
          ],
          [
            80.2527453,
            12.9799848
          ],
          [
            80.2527419,
            12.9799018
          ],
          [
            80.2527349,
            12.9798118
          ],
          [
            80.2527284,
            12.9797289
          ],
          [
            80.2527228,
            12.97966
          ],
          [
            80.2527151,
            12.9795645
          ],
          [
            80.2526546,
            12.9791733
          ],
          [
            80.2525825,
            12.9788105
          ],
          [
            80.2524917,
            12.9785686
          ],
          [
            80.2523628,
            12.9783334
          ],
          [
            80.2522002,
            12.9781245
          ],
          [
            80.2520783,
            12.9779765
          ],
          [
            80.2517853,
            12.9776537
          ],
          [
            80.251729,
            12.9775917
          ],
          [
            80.2516484,
            12.9774663
          ],
          [
            80.2516158,
            12.9774156
          ],
          [
            80.2515775,
            12.9773563
          ],
          [
            80.2514972,
            12.9772317
          ],
          [
            80.2513516,
            12.9769101
          ],
          [
            80.251218,
            12.9764335
          ],
          [
            80.2511127,
            12.9760086
          ],
          [
            80.2510669,
            12.9758243
          ],
          [
            80.2510237,
            12.9756498
          ],
          [
            80.2509654,
            12.9754149
          ],
          [
            80.2507779,
            12.9754614
          ],
          [
            80.2511575,
            12.9768262
          ],
          [
            80.2511738,
            12.9768744
          ],
          [
            80.2511875,
            12.976915
          ],
          [
            80.2512481,
            12.9770944
          ],
          [
            80.2513569,
            12.9773047
          ],
          [
            80.2513819,
            12.9773528
          ],
          [
            80.2514246,
            12.9774127
          ],
          [
            80.2515238,
            12.9775518
          ]
        ]
      }
    },
    {
      "type": "Feature",
      "properties": {
        "route_id": 5,
        "starting_node": "CAM04",
        "ending_node": "CAM07",
        "distance_m": 5375.84,
        "osm_start_node": "1275642278",
        "osm_end_node": "3878245476"
      },
      "geometry": {
        "type": "LineString",
        "coordinates": [
          [
            80.2483548,
            12.977521
          ],
          [
            80.2481953,
            12.9770148
          ],
          [
            80.2474614,
            12.9744809
          ],
          [
            80.247983,
            12.97437
          ],
          [
            80.2478679,
            12.9738865
          ],
          [
            80.2496178,
            12.9734964
          ],
          [
            80.2500777,
            12.9733948
          ],
          [
            80.2501795,
            12.9733716
          ],
          [
            80.2502615,
            12.9736978
          ],
          [
            80.2502843,
            12.9737839
          ],
          [
            80.2504655,
            12.9737375
          ],
          [
            80.2504409,
            12.9736507
          ],
          [
            80.2504217,
            12.9735793
          ],
          [
            80.2503548,
            12.9733296
          ],
          [
            80.2503177,
            12.9731802
          ],
          [
            80.2503342,
            12.9730437
          ],
          [
            80.250327,
            12.9729472
          ],
          [
            80.2502594,
            12.9725554
          ],
          [
            80.2501746,
            12.9722695
          ],
          [
            80.2507833,
            12.9721957
          ],
          [
            80.2520686,
            12.9720059
          ],
          [
            80.2522962,
            12.9719585
          ],
          [
            80.2520906,
            12.9709321
          ],
          [
            80.2519512,
            12.9702465
          ],
          [
            80.2518524,
            12.9695627
          ],
          [
            80.2517644,
            12.9688909
          ],
          [
            80.2515721,
            12.9679324
          ],
          [
            80.2514165,
            12.9670831
          ],
          [
            80.2513189,
            12.9666816
          ],
          [
            80.2512611,
            12.966407
          ],
          [
            80.2511985,
            12.9660926
          ],
          [
            80.2510486,
            12.9650857
          ],
          [
            80.2509842,
            12.9647791
          ],
          [
            80.2507611,
            12.9636618
          ],
          [
            80.2502313,
            12.9607825
          ],
          [
            80.249721,
            12.9578805
          ],
          [
            80.2494754,
            12.9565514
          ],
          [
            80.2493553,
            12.9558488
          ],
          [
            80.2490371,
            12.9542511
          ],
          [
            80.2490205,
            12.9541675
          ],
          [
            80.2489289,
            12.9537032
          ],
          [
            80.2487932,
            12.9530157
          ],
          [
            80.2486343,
            12.9522102
          ],
          [
            80.2485715,
            12.9518795
          ],
          [
            80.248517,
            12.9515931
          ],
          [
            80.248452,
            12.9512757
          ],
          [
            80.2483874,
            12.9510937
          ],
          [
            80.2482186,
            12.9501867
          ],
          [
            80.2481558,
            12.9497731
          ],
          [
            80.2481128,
            12.9496095
          ],
          [
            80.2485396,
            12.9495699
          ],
          [
            80.2487833,
            12.9495382
          ],
          [
            80.2487564,
            12.9492492
          ],
          [
            80.2486609,
            12.9486155
          ],
          [
            80.2488988,
            12.9485817
          ],
          [
            80.2490789,
            12.9485548
          ],
          [
            80.2492549,
            12.9485247
          ],
          [
            80.249163,
            12.9478931
          ],
          [
            80.2493715,
            12.9478591
          ],
          [
            80.2495037,
            12.9478728
          ],
          [
            80.2494997,
            12.9475304
          ],
          [
            80.2495573,
            12.9475014
          ],
          [
            80.2500389,
            12.9474541
          ],
          [
            80.2500408,
            12.9470469
          ],
          [
            80.2500389,
            12.9466788
          ],
          [
            80.2500534,
            12.9463827
          ],
          [
            80.2501089,
            12.94615
          ],
          [
            80.2499097,
            12.9461193
          ],
          [
            80.2492255,
            12.9461849
          ],
          [
            80.2491889,
            12.9459365
          ],
          [
            80.2491354,
            12.9456523
          ],
          [
            80.2490744,
            12.9452801
          ],
          [
            80.2489908,
            12.9447796
          ],
          [
            80.2481914,
            12.9449646
          ],
          [
            80.2480363,
            12.9450105
          ],
          [
            80.2480142,
            12.9449149
          ],
          [
            80.2479814,
            12.9447163
          ],
          [
            80.2479778,
            12.9446028
          ],
          [
            80.2479509,
            12.944426
          ],
          [
            80.2479347,
            12.9443509
          ],
          [
            80.2479046,
            12.9442213
          ],
          [
            80.24787,
            12.9440356
          ],
          [
            80.2478286,
            12.9438335
          ],
          [
            80.247814,
            12.9437704
          ],
          [
            80.2477876,
            12.9436536
          ],
          [
            80.247752,
            12.9434738
          ],
          [
            80.2477073,
            12.9432616
          ],
          [
            80.2476658,
            12.9430765
          ],
          [
            80.2476291,
            12.9428841
          ],
          [
            80.2475618,
            12.9426868
          ],
          [
            80.2473741,
            12.9427238
          ],
          [
            80.2473236,
            12.9424953
          ],
          [
            80.2472501,
            12.942131
          ],
          [
            80.2471192,
            12.941508
          ],
          [
            80.2470376,
            12.9412192
          ],
          [
            80.2469531,
            12.9407919
          ],
          [
            80.2476072,
            12.9407068
          ],
          [
            80.2478115,
            12.9406897
          ],
          [
            80.2480451,
            12.9406689
          ],
          [
            80.2482379,
            12.940647
          ],
          [
            80.2487955,
            12.9405797
          ]
        ]
      }
    }
  ]
}