{
  "type": "FeatureCollection",
  "features": [
    {
      "type": "Feature",
      "properties": {
        "route_id": 6,
        "from_camera": "CAM01",
        "to_camera": "CAM02",
        "distance_m": 7661.85
      },
      "geometry": {
        "type": "LineString",
        "coordinates": [
          [
            80.2045,
            13.0068
          ],
          [
            80.2057657,
            13.0076834
          ],
          [
            80.2059022,
            13.0077031
          ],
          [
            80.2060493,
            13.0077355
          ],
          [
            80.2061372,
            13.0077549
          ],
          [
            80.2061372,
            13.0077549
          ],
          [
            80.2061468,
            13.007757
          ],
          [
            80.2065299,
            13.0078414
          ],
          [
            80.2070512,
            13.0079177
          ],
          [
            80.2072355,
            13.0079447
          ],
          [
            80.2086623,
            13.0081478
          ],
          [
            80.2093351,
            13.0082622
          ],
          [
            80.2099739,
            13.008448
          ],
          [
            80.2103263,
            13.0085663
          ],
          [
            80.2103263,
            13.0085663
          ],
          [
            80.2110096,
            13.009488
          ],
          [
            80.2119129,
            13.0105983
          ],
          [
            80.2127064,
            13.0116289
          ],
          [
            80.2128717,
            13.0118396
          ],
          [
            80.2133416,
            13.0124819
          ],
          [
            80.2135841,
            13.0129055
          ],
          [
            80.2143479,
            13.01424
          ],
          [
            80.214607,
            13.0146649
          ],
          [
            80.2148436,
            13.0150659
          ],
          [
            80.215294,
            13.0157549
          ],
          [
            80.215384,
            13.0158926
          ],
          [
            80.215384,
            13.0158926
          ],
          [
            80.2154695,
            13.0160317
          ],
          [
            80.2155289,
            13.0160983
          ],
          [
            80.2156029,
            13.0161612
          ],
          [
            80.2156617,
            13.0162058
          ],
          [
            80.2157009,
            13.0162347
          ],
          [
            80.2157524,
            13.0162701
          ],
          [
            80.2158395,
            13.0163263
          ],
          [
            80.2159154,
            13.0163667
          ],
          [
            80.2160053,
            13.0164193
          ],
          [
            80.2162891,
            13.0165582
          ],
          [
            80.2165251,
            13.0166697
          ],
          [
            80.2167029,
            13.0167619
          ],
          [
            80.2169569,
            13.0169073
          ],
          [
            80.2179879,
            13.0175929
          ],
          [
            80.218048,
            13.0176371
          ],
          [
            80.218107,
            13.017685
          ],
          [
            80.2181731,
            13.0177485
          ],
          [
            80.2182677,
            13.0178465
          ],
          [
            80.2187109,
            13.0183082
          ],
          [
            80.218775,
            13.0183734
          ],
          [
            80.2191247,
            13.0187638
          ],
          [
            80.219281,
            13.018969
          ],
          [
            80.2195154,
            13.0193299
          ],
          [
            80.2195154,
            13.0193299
          ],
          [
            80.2196381,
            13.0194083
          ],
          [
            80.2196381,
            13.0194083
          ],
          [
            80.2197779,
            13.0194754
          ],
          [
            80.2197779,
            13.0194754
          ],
          [
            80.2202577,
            13.0197353
          ],
          [
            80.2202577,
            13.0197353
          ],
          [
            80.2203518,
            13.0197917
          ],
          [
            80.220801,
            13.0200056
          ],
          [
            80.2210981,
            13.0201566
          ],
          [
            80.2210981,
            13.0201566
          ],
          [
            80.2211525,
            13.02019
          ],
          [
            80.2214246,
            13.0203382
          ],
          [
            80.2216892,
            13.0204883
          ],
          [
            80.222145,
            13.020725
          ],
          [
            80.2227731,
            13.021074
          ],
          [
            80.2233565,
            13.0214056
          ],
          [
            80.224084,
            13.0217836
          ],
          [
            80.2242678,
            13.0218969
          ],
          [
            80.2242678,
            13.0218969
          ],
          [
            80.2246275,
            13.0220622
          ],
          [
            80.2246275,
            13.0220622
          ],
          [
            80.2250033,
            13.0222655
          ],
          [
            80.2250033,
            13.0222655
          ],
          [
            80.2251117,
            13.0223297
          ],
          [
            80.2253906,
            13.0225027
          ],
          [
            80.2254897,
            13.0225576
          ],
          [
            80.2257834,
            13.0227052
          ],
          [
            80.2261725,
            13.0229139
          ],
          [
            80.227212,
            13.0234005
          ],
          [
            80.2274963,
            13.0235682
          ],
          [
            80.2274963,
            13.0235682
          ],
          [
            80.2276579,
            13.0237236
          ],
          [
            80.2277999,
            13.0238688
          ],
          [
            80.2279945,
            13.0240432
          ],
          [
            80.2281587,
            13.0241876
          ],
          [
            80.2283854,
            13.0243722
          ],
          [
            80.2283854,
            13.0243722
          ],
          [
            80.2284818,
            13.0244507
          ],
          [
            80.2284818,
            13.0244507
          ],
          [
            80.2289552,
            13.0247164
          ],
          [
            80.2291219,
            13.024843
          ],
          [
            80.2294211,
            13.025082
          ],
          [
            80.2297556,
            13.0253248
          ],
          [
            80.2298378,
            13.0253817
          ],
          [
            80.2298378,
            13.0253817
          ],
          [
            80.2302838,
            13.0256904
          ],
          [
            80.2302949,
            13.025697
          ],
          [
            80.23066,
            13.0258632
          ],
          [
            80.2307221,
            13.0258833
          ],
          [
            80.2307774,
            13.0259011
          ],
          [
            80.2309631,
            13.0259611
          ],
          [
            80.2309738,
            13.0259646
          ],
          [
            80.2313679,
            13.0260918
          ],
          [
            80.2315524,
            13.0261452
          ],
          [
            80.2317095,
            13.026211
          ],
          [
            80.2319003,
            13.0262609
          ],
          [
            80.2320861,
            13.0263105
          ],
          [
            80.2322719,
            13.0263731
          ],
          [
            80.2323209,
            13.0263877
          ],
          [
            80.2325211,
            13.0264641
          ],
          [
            80.2325543,
            13.0264752
          ],
          [
            80.2328021,
            13.0265804
          ],
          [
            80.2329458,
            13.0266409
          ],
          [
            80.2330185,
            13.0266853
          ],
          [
            80.2343838,
            13.0275158
          ],
          [
            80.2346033,
            13.0276276
          ],
          [
            80.2353917,
            13.0280247
          ],
          [
            80.2353917,
            13.0280247
          ],
          [
            80.235676,
            13.0282831
          ],
          [
            80.235676,
            13.0282831
          ],
          [
            80.2363591,
            13.0289038
          ],
          [
            80.2368471,
            13.029344
          ],
          [
            80.2368665,
            13.0293598
          ],
          [
            80.2373179,
            13.0297955
          ],
          [
            80.2377393,
            13.0300698
          ],
          [
            80.2377393,
            13.0300698
          ],
          [
            80.2371813,
            13.0311257
          ],
          [
            80.2371813,
            13.0311257
          ],
          [
            80.2371576,
            13.0311621
          ],
          [
            80.2371184,
            13.0311541
          ],
          [
            80.2370785,
            13.0311585
          ],
          [
            80.2370421,
            13.0311747
          ],
          [
            80.2370128,
            13.0312013
          ],
          [
            80.2369935,
            13.0312355
          ],
          [
            80.2369861,
            13.0312739
          ],
          [
            80.2369888,
            13.0313106
          ],
          [
            80.237,
            13.0313333
          ],
          [
            80.237014,
            13.031356
          ],
          [
            80.2370427,
            13.0313797
          ],
          [
            80.2370807,
            13.0313961
          ],
          [
            80.237122,
            13.0313997
          ],
          [
            80.2371105,
            13.0314835
          ],
          [
            80.2371071,
            13.0315793
          ],
          [
            80.2370856,
            13.0317811
          ],
          [
            80.2370632,
            13.0319889
          ],
          [
            80.2370632,
            13.0319889
          ],
          [
            80.238891,
            13.0323428
          ],
          [
            80.238891,
            13.0323428
          ],
          [
            80.2383291,
            13.0332055
          ],
          [
            80.2383291,
            13.0332055
          ],
          [
            80.2381716,
            13.0334551
          ],
          [
            80.2381716,
            13.0334551
          ],
          [
            80.2382686,
            13.0335189
          ],
          [
            80.2383718,
            13.0335811
          ],
          [
            80.2388298,
            13.0338572
          ],
          [
            80.2390372,
            13.033986
          ],
          [
            80.2392501,
            13.034095
          ],
          [
            80.2393495,
            13.0340883
          ],
          [
            80.2394011,
            13.0340849
          ],
          [
            80.2398337,
            13.0340082
          ],
          [
            80.240569,
            13.0339079
          ],
          [
            80.2407087,
            13.033872
          ],
          [
            80.2410743,
            13.0335706
          ],
          [
            80.2410743,
            13.0335706
          ],
          [
            80.2414446,
            13.033962
          ],
          [
            80.2414446,
            13.033962
          ],
          [
            80.2422221,
            13.0349146
          ],
          [
            80.242443,
            13.0353652
          ],
          [
            80.2426465,
            13.0358253
          ],
          [
            80.2426967,
            13.0359729
          ],
          [
            80.2426967,
            13.0359729
          ],
          [
            80.2428042,
            13.036267
          ],
          [
            80.2428042,
            13.036267
          ],
          [
            80.2429324,
            13.0368088
          ],
          [
            80.2429565,
            13.0369445
          ],
          [
            80.2429648,
            13.0369957
          ],
          [
            80.2429648,
            13.0369957
          ],
          [
            80.2429928,
            13.0371693
          ],
          [
            80.2429928,
            13.0371693
          ],
          [
            80.2429965,
            13.0371976
          ],
          [
            80.2429965,
            13.0371976
          ],
          [
            80.2430211,
            13.0373517
          ],
          [
            80.2430211,
            13.0373517
          ],
          [
            80.243074,
            13.0377661
          ],
          [
            80.243074,
            13.0377661
          ],
          [
            80.243199,
            13.0383211
          ],
          [
            80.2432636,
            13.0385009
          ],
          [
            80.2432795,
            13.0385315
          ],
          [
            80.2432795,
            13.0385315
          ],
          [
            80.2434101,
            13.0390602
          ],
          [
            80.2434101,
            13.0390602
          ],
          [
            80.2435363,
            13.0392802
          ],
          [
            80.243532,
            13.0393406
          ],
          [
            80.2436035,
            13.039477
          ],
          [
            80.2438385,
            13.0399526
          ],
          [
            80.2438385,
            13.0399526
          ],
          [
            80.2438308,
            13.039961
          ],
          [
            80.243824,
            13.0399933
          ],
          [
            80.2438348,
            13.0400245
          ],
          [
            80.2438603,
            13.040046
          ],
          [
            80.2438926,
            13.0400524
          ],
          [
            80.2439241,
            13.0400418
          ],
          [
            80.243981,
            13.0402207
          ],
          [
            80.2439961,
            13.0402735
          ],
          [
            80.2440109,
            13.0403326
          ],
          [
            80.2440309,
            13.0404211
          ],
          [
            80.2441641,
            13.041056
          ],
          [
            80.2441831,
            13.0411677
          ],
          [
            80.2441831,
            13.0411677
          ],
          [
            80.2443715,
            13.0421835
          ],
          [
            80.2445012,
            13.0428835
          ],
          [
            80.2445327,
            13.0430538
          ],
          [
            80.2445937,
            13.043383
          ],
          [
            80.2445937,
            13.043383
          ],
          [
            80.2447273,
            13.0440371
          ],
          [
            80.2447456,
            13.044124
          ],
          [
            80.2450106,
            13.045421
          ],
          [
            80.2450561,
            13.045695
          ],
          [
            80.2450561,
            13.045695
          ],
          [
            80.2450693,
            13.0457609
          ],
          [
            80.2450693,
            13.0457609
          ],
          [
            80.2450981,
            13.0459045
          ],
          [
            80.2450981,
            13.0459045
          ],
          [
            80.2451171,
            13.0460251
          ],
          [
            80.2451171,
            13.0460251
          ],
          [
            80.2451365,
            13.0460849
          ],
          [
            80.2451365,
            13.0460849
          ],
          [
            80.2451589,
            13.046228
          ],
          [
            80.2451589,
            13.046228
          ],
          [
            80.245202,
            13.0464668
          ],
          [
            80.245202,
            13.0464668
          ],
          [
            80.2452052,
            13.0464857
          ],
          [
            80.2452052,
            13.0464857
          ],
          [
            80.2452268,
            13.046614
          ],
          [
            80.2452268,
            13.046614
          ],
          [
            80.2452606,
            13.0468146
          ],
          [
            80.245267,
            13.0468524
          ],
          [
            80.2452843,
            13.0469549
          ],
          [
            80.2452959,
            13.0470238
          ],
          [
            80.2453612,
            13.0474112
          ],
          [
            80.2453868,
            13.0476972
          ],
          [
            80.2453916,
            13.0478004
          ],
          [
            80.2453961,
            13.0478914
          ],
          [
            80.2453961,
            13.0478914
          ],
          [
            80.2453569,
            13.0479723
          ],
          [
            80.2455078,
            13.0480579
          ],
          [
            80.2458483,
            13.0482864
          ],
          [
            80.2461505,
            13.0485188
          ],
          [
            80.2462767,
            13.0486304
          ],
          [
            80.2466569,
            13.0489639
          ],
          [
            80.2468333,
            13.0490968
          ],
          [
            80.2469772,
            13.0491993
          ],
          [
            80.247162,
            13.0493144
          ],
          [
            80.2472281,
            13.0493556
          ],
          [
            80.247566,
            13.0495744
          ],
          [
            80.2477805,
            13.0497034
          ],
          [
            80.2483631,
            13.0501852
          ],
          [
            80.2488699,
            13.0506545
          ],
          [
            80.2489188,
            13.0507736
          ],
          [
            80.2493985,
            13.0512302
          ],
          [
            80.24958,
            13.0513771
          ],
          [
            80.2505,
            13.0528
          ]
        ]
      }
    },
    {
      "type": "Feature",
      "properties": {
        "route_id": 7,
        "from_camera": "CAM01",
        "to_camera": "CAM06",
        "distance_m": 5060.16
      },
      "geometry": {
        "type": "LineString",
        "coordinates": [
          [
            80.2045,
            13.0068
          ],
          [
            80.2052883,
            13.0054845
          ],
          [
            80.2053407,
            13.005069
          ],
          [
            80.2053897,
            13.0047535
          ],
          [
            80.2053897,
            13.0047535
          ],
          [
            80.2054822,
            13.004096
          ],
          [
            80.2054822,
            13.004096
          ],
          [
            80.2055152,
            13.0035492
          ],
          [
            80.2055152,
            13.0035492
          ],
          [
            80.2058275,
            13.003593
          ],
          [
            80.2058275,
            13.003593
          ],
          [
            80.2060567,
            13.0035681
          ],
          [
            80.2060567,
            13.0035681
          ],
          [
            80.2060916,
            13.0035628
          ],
          [
            80.2060916,
            13.0035628
          ],
          [
            80.2066392,
            13.0035188
          ],
          [
            80.2067346,
            13.0035111
          ],
          [
            80.2069119,
            13.0034968
          ],
          [
            80.207029,
            13.0034908
          ],
          [
            80.2074648,
            13.0034952
          ],
          [
            80.2074648,
            13.0034952
          ],
          [
            80.2077124,
            13.0034961
          ],
          [
            80.2077124,
            13.0034961
          ],
          [
            80.2079546,
            13.003605
          ],
          [
            80.2079546,
            13.003605
          ],
          [
            80.2081021,
            13.0036788
          ],
          [
            80.2081021,
            13.0036788
          ],
          [
            80.2085221,
            13.0040454
          ],
          [
            80.2085221,
            13.0040454
          ],
          [
            80.2087281,
            13.0044233
          ],
          [
            80.2087717,
            13.0045012
          ],
          [
            80.2088955,
            13.0047915
          ],
          [
            80.2089508,
            13.004909
          ],
          [
            80.2091088,
            13.0052353
          ],
          [
            80.2092001,
            13.0054329
          ],
          [
            80.2092655,
            13.0055906
          ],
          [
            80.2093715,
            13.0058797
          ],
          [
            80.2094516,
            13.0060847
          ],
          [
            80.2094706,
            13.0060792
          ],
          [
            80.2094986,
            13.0060709
          ],
          [
            80.2094738,
            13.0060066
          ],
          [
            80.2092556,
            13.0054027
          ],
          [
            80.2090013,
            13.0048197
          ],
          [
            80.2088749,
            13.004571
          ],
          [
            80.2087411,
            13.0043033
          ],
          [
            80.2086755,
            13.0041694
          ],
          [
            80.2086221,
            13.0040087
          ],
          [
            80.2086153,
            13.0039609
          ],
          [
            80.2086161,
            13.0039141
          ],
          [
            80.2086222,
            13.0038657
          ],
          [
            80.2086489,
            13.0038175
          ],
          [
            80.2086864,
            13.0037705
          ],
          [
            80.2087365,
            13.0037381
          ],
          [
            80.2088048,
            13.0037047
          ],
          [
            80.2089315,
            13.0036677
          ],
          [
            80.2092323,
            13.0036074
          ],
          [
            80.2094977,
            13.0035656
          ],
          [
            80.2097236,
            13.0035498
          ],
          [
            80.2098851,
            13.0035553
          ],
          [
            80.2112851,
            13.0037404
          ],
          [
            80.2112851,
            13.0037404
          ],
          [
            80.2115039,
            13.0037947
          ],
          [
            80.2118654,
            13.003795
          ],
          [
            80.2119457,
            13.0037973
          ],
          [
            80.2119457,
            13.0037973
          ],
          [
            80.2120421,
            13.0037866
          ],
          [
            80.2120421,
            13.0037866
          ],
          [
            80.2120362,
            13.003711
          ],
          [
            80.2120362,
            13.003711
          ],
          [
            80.2120106,
            13.0036069
          ],
          [
            80.2120106,
            13.0036069
          ],
          [
            80.2120446,
            13.0034575
          ],
          [
            80.2120627,
            13.0033246
          ],
          [
            80.2120788,
            13.0030788
          ],
          [
            80.2120788,
            13.0030788
          ],
          [
            80.212101,
            13.0027314
          ],
          [
            80.212101,
            13.0027314
          ],
          [
            80.2121087,
            13.002593
          ],
          [
            80.2121087,
            13.002593
          ],
          [
            80.2121142,
            13.0025385
          ],
          [
            80.212303,
            13.0021538
          ],
          [
            80.2123313,
            13.0020932
          ],
          [
            80.2124042,
            13.0019842
          ],
          [
            80.212453,
            13.0019136
          ],
          [
            80.212507,
            13.0018355
          ],
          [
            80.2129549,
            13.0012192
          ],
          [
            80.2130865,
            13.0010573
          ],
          [
            80.2131158,
            13.001018
          ],
          [
            80.2131985,
            13.0009268
          ],
          [
            80.2132959,
            13.000809
          ],
          [
            80.2135615,
            13.0004962
          ],
          [
            80.213875,
            13.0001393
          ],
          [
            80.2141515,
            12.9998346
          ],
          [
            80.2142625,
            12.9996978
          ],
          [
            80.2147506,
            12.9991525
          ],
          [
            80.2147692,
            12.9991317
          ],
          [
            80.214772,
            12.9991286
          ],
          [
            80.2149254,
            12.9989537
          ],
          [
            80.2152641,
            12.9985674
          ],
          [
            80.215538,
            12.9982777
          ],
          [
            80.2160004,
            12.9977277
          ],
          [
            80.2161324,
            12.9975774
          ],
          [
            80.2162638,
            12.997438
          ],
          [
            80.2163862,
            12.9973247
          ],
          [
            80.2164696,
            12.9972581
          ],
          [
            80.2164696,
            12.9972581
          ],
          [
            80.2165504,
            12.9972089
          ],
          [
            80.2165526,
            12.9971743
          ],
          [
            80.2165718,
            12.9967043
          ],
          [
            80.2166104,
            12.9963977
          ],
          [
            80.2166746,
            12.9960839
          ],
          [
            80.2167353,
            12.9958058
          ],
          [
            80.2169,
            12.9953837
          ],
          [
            80.2169662,
            12.9952475
          ],
          [
            80.2172513,
            12.9948205
          ],
          [
            80.2195487,
            12.9916507
          ],
          [
            80.2195977,
            12.9915857
          ],
          [
            80.2195977,
            12.9915857
          ],
          [
            80.2196713,
            12.9914896
          ],
          [
            80.2197766,
            12.9913568
          ],
          [
            80.2200334,
            12.9910125
          ],
          [
            80.2206945,
            12.990178
          ],
          [
            80.2207226,
            12.9901027
          ],
          [
            80.2208592,
            12.9899415
          ],
          [
            80.2209708,
            12.989835
          ],
          [
            80.2211671,
            12.989668
          ],
          [
            80.2213262,
            12.9895414
          ],
          [
            80.2214745,
            12.9894189
          ],
          [
            80.2216446,
            12.9892802
          ],
          [
            80.2220104,
            12.9889818
          ],
          [
            80.2221549,
            12.9888707
          ],
          [
            80.2221745,
            12.9888541
          ],
          [
            80.2221745,
            12.9888541
          ],
          [
            80.222389,
            12.9886732
          ],
          [
            80.222389,
            12.9886732
          ],
          [
            80.2223986,
            12.9886651
          ],
          [
            80.2227406,
            12.9882717
          ],
          [
            80.2229244,
            12.9880352
          ],
          [
            80.2230558,
            12.9878444
          ],
          [
            80.223065,
            12.9878213
          ],
          [
            80.2230746,
            12.9877973
          ],
          [
            80.2230826,
            12.9877398
          ],
          [
            80.2230974,
            12.9876327
          ],
          [
            80.2230821,
            12.9873016
          ],
          [
            80.2230567,
            12.9870692
          ],
          [
            80.2229705,
            12.9864666
          ],
          [
            80.2229732,
            12.9861768
          ],
          [
            80.2229732,
            12.9861768
          ],
          [
            80.2229796,
            12.9859715
          ],
          [
            80.2230311,
            12.9857206
          ],
          [
            80.2233142,
            12.9854614
          ],
          [
            80.2233058,
            12.985361
          ],
          [
            80.2232618,
            12.9851127
          ],
          [
            80.2232491,
            12.9850804
          ],
          [
            80.2231255,
            12.9847671
          ],
          [
            80.2228777,
            12.9843858
          ],
          [
            80.2226639,
            12.9840511
          ],
          [
            80.2226277,
            12.9839929
          ],
          [
            80.2225223,
            12.9838238
          ],
          [
            80.2225076,
            12.9838003
          ],
          [
            80.2225076,
            12.9838003
          ],
          [
            80.2221099,
            12.9831615
          ],
          [
            80.2219894,
            12.9829338
          ],
          [
            80.2218989,
            12.9827629
          ],
          [
            80.2218989,
            12.9827629
          ],
          [
            80.2218538,
            12.9825674
          ],
          [
            80.2218538,
            12.9825674
          ],
          [
            80.2217186,
            12.9822402
          ],
          [
            80.2215039,
            12.9818333
          ],
          [
            80.221117,
            12.9813206
          ],
          [
            80.2210859,
            12.981247
          ],
          [
            80.2210859,
            12.981247
          ],
          [
            80.2210148,
            12.9810784
          ],
          [
            80.2210445,
            12.9807765
          ],
          [
            80.2210565,
            12.9805552
          ],
          [
            80.2210755,
            12.9802805
          ],
          [
            80.2210826,
            12.9801776
          ],
          [
            80.2210873,
            12.9800405
          ],
          [
            80.2210909,
            12.9799885
          ],
          [
            80.2211016,
            12.9797452
          ],
          [
            80.2211068,
            12.9796274
          ],
          [
            80.221109,
            12.9795872
          ],
          [
            80.2211287,
            12.979223
          ],
          [
            80.2211311,
            12.9791794
          ],
          [
            80.2211391,
            12.9790322
          ],
          [
            80.2211452,
            12.9789188
          ],
          [
            80.221148,
            12.9787549
          ],
          [
            80.2211496,
            12.9786619
          ],
          [
            80.221155,
            12.9786104
          ],
          [
            80.2211596,
            12.97858
          ],
          [
            80.2211625,
            12.978553
          ],
          [
            80.2211783,
            12.9782956
          ],
          [
            80.2211808,
            12.9782556
          ],
          [
            80.2211832,
            12.9782163
          ],
          [
            80.2212006,
            12.9778953
          ],
          [
            80.2212061,
            12.9777947
          ],
          [
            80.2212061,
            12.9777428
          ],
          [
            80.221206,
            12.9775302
          ],
          [
            80.221206,
            12.9775013
          ],
          [
            80.221206,
            12.9775013
          ],
          [
            80.2212104,
            12.9770381
          ],
          [
            80.2212169,
            12.9767901
          ],
          [
            80.2212122,
            12.9764607
          ],
          [
            80.2212166,
            12.9763056
          ],
          [
            80.2212424,
            12.9762165
          ],
          [
            80.2212565,
            12.9761756
          ],
          [
            80.2213325,
            12.9760873
          ],
          [
            80.2213325,
            12.9760873
          ],
          [
            80.2214036,
            12.9759943
          ],
          [
            80.222,
            12.975
          ]
        ]
      }
    }
  ]
}