{
  "type": "FeatureCollection",
  "features": [
    {
      "type": "Feature",
      "properties": {
        "route_id": 8,
        "from_camera": "CAM06",
        "to_camera": "CAM04",
        "distance_m": 4378.04
      },
      "geometry": {
        "type": "LineString",
        "coordinates": [
          [
            80.222,
            12.975
          ],
          [
            80.2219008,
            12.9749637
          ],
          [
            80.2219211,
            12.9751715
          ],
          [
            80.2219329,
            12.9752918
          ],
          [
            80.221937,
            12.975391
          ],
          [
            80.221937,
            12.975391
          ],
          [
            80.2219517,
            12.9757501
          ],
          [
            80.2219517,
            12.9757501
          ],
          [
            80.2219418,
            12.9757854
          ],
          [
            80.2219323,
            12.975819
          ],
          [
            80.2218618,
            12.9760699
          ],
          [
            80.2217575,
            12.9762417
          ],
          [
            80.2217575,
            12.9762417
          ],
          [
            80.2214036,
            12.9759943
          ],
          [
            80.2214036,
            12.9759943
          ],
          [
            80.2213325,
            12.9760873
          ],
          [
            80.2215821,
            12.9762478
          ],
          [
            80.2219275,
            12.9764634
          ],
          [
            80.2220667,
            12.9765503
          ],
          [
            80.2227628,
            12.9769934
          ],
          [
            80.2227628,
            12.9769934
          ],
          [
            80.223144,
            12.9772234
          ],
          [
            80.223144,
            12.9772234
          ],
          [
            80.2235307,
            12.9774565
          ],
          [
            80.2246021,
            12.9781163
          ],
          [
            80.224769,
            12.9782125
          ],
          [
            80.224769,
            12.9782125
          ],
          [
            80.2250841,
            12.9783943
          ],
          [
            80.2251037,
            12.9784056
          ],
          [
            80.2251212,
            12.9784157
          ],
          [
            80.225212,
            12.9784681
          ],
          [
            80.2253586,
            12.9785526
          ],
          [
            80.2266477,
            12.9793168
          ],
          [
            80.2281925,
            12.9802521
          ],
          [
            80.2283547,
            12.9803508
          ],
          [
            80.2285645,
            12.9804834
          ],
          [
            80.228782,
            12.9806111
          ],
          [
            80.2293069,
            12.9809194
          ],
          [
            80.2293474,
            12.9809398
          ],
          [
            80.2294449,
            12.9809964
          ],
          [
            80.2300098,
            12.9813404
          ],
          [
            80.2300442,
            12.9813614
          ],
          [
            80.2301586,
            12.9814311
          ],
          [
            80.2302221,
            12.9814698
          ],
          [
            80.2306639,
            12.9817389
          ],
          [
            80.2309325,
            12.9818675
          ],
          [
            80.2313027,
            12.9819883
          ],
          [
            80.2314891,
            12.9820354
          ],
          [
            80.2316608,
            12.9820537
          ],
          [
            80.2319572,
            12.9820524
          ],
          [
            80.2322191,
            12.9820681
          ],
          [
            80.2326196,
            12.9819985
          ],
          [
            80.2329106,
            12.9819054
          ],
          [
            80.2330395,
            12.981846
          ],
          [
            80.233128,
            12.9817976
          ],
          [
            80.2334748,
            12.981636
          ],
          [
            80.2336401,
            12.9815604
          ],
          [
            80.2339849,
            12.9814013
          ],
          [
            80.2342304,
            12.9812879
          ],
          [
            80.2344382,
            12.9812447
          ],
          [
            80.2346148,
            12.9812337
          ],
          [
            80.2349625,
            12.9812278
          ],
          [
            80.2358943,
            12.9812548
          ],
          [
            80.2379488,
            12.9813239
          ],
          [
            80.2379488,
            12.9813239
          ],
          [
            80.2389227,
            12.9813243
          ],
          [
            80.2389227,
            12.9813243
          ],
          [
            80.239672,
            12.9813431
          ],
          [
            80.2399117,
            12.9813454
          ],
          [
            80.240023,
            12.9813836
          ],
          [
            80.240023,
            12.9813836
          ],
          [
            80.240246,
            12.9813919
          ],
          [
            80.2413822,
            12.9814077
          ],
          [
            80.2417707,
            12.9814076
          ],
          [
            80.2419069,
            12.9814112
          ],
          [
            80.2419069,
            12.9814112
          ],
          [
            80.2422152,
            12.9814092
          ],
          [
            80.2422152,
            12.9814092
          ],
          [
            80.2425721,
            12.9813998
          ],
          [
            80.2427193,
            12.9814019
          ],
          [
            80.2428268,
            12.9813991
          ],
          [
            80.2430356,
            12.9813982
          ],
          [
            80.2431562,
            12.9813985
          ],
          [
            80.2431738,
            12.9814098
          ],
          [
            80.2431937,
            12.9814165
          ],
          [
            80.2432148,
            12.9814181
          ],
          [
            80.2432325,
            12.9814153
          ],
          [
            80.2432492,
            12.9814089
          ],
          [
            80.2432641,
            12.9813991
          ],
          [
            80.2432641,
            12.9813991
          ],
          [
            80.2434367,
            12.981396
          ],
          [
            80.2437841,
            12.9813622
          ],
          [
            80.2444029,
            12.9812924
          ],
          [
            80.2450862,
            12.9812041
          ],
          [
            80.2456252,
            12.9811385
          ],
          [
            80.2461966,
            12.9810701
          ],
          [
            80.2466091,
            12.9810307
          ],
          [
            80.2468708,
            12.9810072
          ],
          [
            80.2472832,
            12.9809686
          ],
          [
            80.247511,
            12.9809483
          ],
          [
            80.2476162,
            12.9809422
          ],
          [
            80.2477727,
            12.9809313
          ],
          [
            80.2478597,
            12.9809212
          ],
          [
            80.2479779,
            12.9809126
          ],
          [
            80.248036,
            12.9809084
          ],
          [
            80.2482896,
            12.9808953
          ],
          [
            80.2493575,
            12.9807967
          ],
          [
            80.2496103,
            12.9807582
          ],
          [
            80.2500348,
            12.9806713
          ],
          [
            80.2504827,
            12.9805668
          ],
          [
            80.2511318,
            12.9803969
          ],
          [
            80.2514556,
            12.9803011
          ],
          [
            80.2517608,
            12.9802217
          ],
          [
            80.2520209,
            12.9801538
          ],
          [
            80.2522717,
            12.980078
          ],
          [
            80.2522717,
            12.980078
          ],
          [
            80.252609,
            12.9799864
          ],
          [
            80.2526948,
            12.9799183
          ],
          [
            80.2527349,
            12.9798118
          ],
          [
            80.2527284,
            12.9797289
          ],
          [
            80.2527228,
            12.97966
          ],
          [
            80.2527151,
            12.9795645
          ],
          [
            80.2526546,
            12.9791733
          ],
          [
            80.2525825,
            12.9788105
          ],
          [
            80.2524917,
            12.9785686
          ],
          [
            80.2523628,
            12.9783334
          ],
          [
            80.2522002,
            12.9781245
          ],
          [
            80.2520783,
            12.9779765
          ],
          [
            80.2517853,
            12.9776537
          ],
          [
            80.251729,
            12.9775917
          ],
          [
            80.2516484,
            12.9774663
          ],
          [
            80.2516158,
            12.9774156
          ],
          [
            80.2515775,
            12.9773563
          ],
          [
            80.2514972,
            12.9772317
          ],
          [
            80.2513516,
            12.9769101
          ],
          [
            80.251218,
            12.9764335
          ],
          [
            80.2511127,
            12.9760086
          ],
          [
            80.2510669,
            12.9758243
          ],
          [
            80.2510237,
            12.9756498
          ],
          [
            80.2509654,
            12.9754149
          ],
          [
            80.251,
            12.9759
          ]
        ]
      }
    },
    {
      "type": "Feature",
      "properties": {
        "route_id": 9,
        "from_camera": "CAM03",
        "to_camera": "CAM04",
        "distance_m": 4472.1
      },
      "geometry": {
        "type": "LineString",
        "coordinates": [
          [
            80.2462,
            13.0066
          ],
          [
            80.24615,
            13.0066442
          ],
          [
            80.2453744,
            13.0066331
          ],
          [
            80.2449488,
            13.006627
          ],
          [
            80.2449289,
            13.0066267
          ],
          [
            80.244523,
            13.0066106
          ],
          [
            80.2442533,
            13.0066126
          ],
          [
            80.2442533,
            13.0066126
          ],
          [
            80.2440014,
            13.0066145
          ],
          [
            80.2440014,
            13.0066145
          ],
          [
            80.2436375,
            13.0066045
          ],
          [
            80.2436037,
            13.006604
          ],
          [
            80.2428757,
            13.0066016
          ],
          [
            80.2428757,
            13.0066016
          ],
          [
            80.2427147,
            13.0066507
          ],
          [
            80.2427147,
            13.0066507
          ],
          [
            80.2428614,
            13.0067102
          ],
          [
            80.2441123,
            13.0067335
          ],
          [
            80.2447327,
            13.0067411
          ],
          [
            80.24476,
            13.0066955
          ],
          [
            80.2453474,
            13.0066916
          ],
          [
            80.2470547,
            13.0067254
          ],
          [
            80.2472238,
            13.0067188
          ],
          [
            80.2473284,
            13.0066938
          ],
          [
            80.2473686,
            13.0065777
          ],
          [
            80.2473701,
            13.0063438
          ],
          [
            80.2473472,
            13.0060325
          ],
          [
            80.2473338,
            13.0055347
          ],
          [
            80.2473279,
            13.005294
          ],
          [
            80.2474073,
            13.0045776
          ],
          [
            80.2474908,
            13.0040522
          ],
          [
            80.2475229,
            13.0039987
          ],
          [
            80.2475947,
            13.0034175
          ],
          [
            80.2477773,
            13.0023938
          ],
          [
            80.2480228,
            13.0014652
          ],
          [
            80.2481599,
            13.000907
          ],
          [
            80.2484104,
            12.9998869
          ],
          [
            80.248579,
            12.9992002
          ],
          [
            80.2488385,
            12.9981705
          ],
          [
            80.2489887,
            12.9974713
          ],
          [
            80.2497522,
            12.9945094
          ],
          [
            80.2497747,
            12.9944221
          ],
          [
            80.2497996,
            12.9943257
          ],
          [
            80.2498244,
            12.9942293
          ],
          [
            80.25041,
            12.9919348
          ],
          [
            80.2504728,
            12.9916856
          ],
          [
            80.2506166,
            12.9911149
          ],
          [
            80.2507287,
            12.99067
          ],
          [
            80.2507505,
            12.9905835
          ],
          [
            80.2511922,
            12.9888237
          ],
          [
            80.251317,
            12.9883249
          ],
          [
            80.251317,
            12.9883249
          ],
          [
            80.2514186,
            12.9879188
          ],
          [
            80.2514186,
            12.9879188
          ],
          [
            80.2514435,
            12.9878116
          ],
          [
            80.2514435,
            12.9878116
          ],
          [
            80.2514698,
            12.9877203
          ],
          [
            80.251599,
            12.987272
          ],
          [
            80.2518505,
            12.9862977
          ],
          [
            80.2521534,
            12.9850757
          ],
          [
            80.2521848,
            12.984954
          ],
          [
            80.2521962,
            12.98491
          ],
          [
            80.2522179,
            12.9848258
          ],
          [
            80.2522404,
            12.9847385
          ],
          [
            80.2522465,
            12.984714
          ],
          [
            80.2526117,
            12.983259
          ],
          [
            80.2526566,
            12.9828403
          ],
          [
            80.2526657,
            12.9827397
          ],
          [
            80.2526935,
            12.9819971
          ],
          [
            80.2527321,
            12.9808426
          ],
          [
            80.2527349,
            12.9807585
          ],
          [
            80.2527409,
            12.9804735
          ],
          [
            80.2527453,
            12.9799848
          ],
          [
            80.2527419,
            12.9799018
          ],
          [
            80.2527349,
            12.9798118
          ],
          [
            80.2527284,
            12.9797289
          ],
          [
            80.2527228,
            12.97966
          ],
          [
            80.2527151,
            12.9795645
          ],
          [
            80.2526546,
            12.9791733
          ],
          [
            80.2525825,
            12.9788105
          ],
          [
            80.2524917,
            12.9785686
          ],
          [
            80.2523628,
            12.9783334
          ],
          [
            80.2522002,
            12.9781245
          ],
          [
            80.2520783,
            12.9779765
          ],
          [
            80.2517853,
            12.9776537
          ],
          [
            80.251729,
            12.9775917
          ],
          [
            80.2516484,
            12.9774663
          ],
          [
            80.2516158,
            12.9774156
          ],
          [
            80.2515775,
            12.9773563
          ],
          [
            80.2514972,
            12.9772317
          ],
          [
            80.2513516,
            12.9769101
          ],
          [
            80.251218,
            12.9764335
          ],
          [
            80.2511127,
            12.9760086
          ],
          [
            80.2510669,
            12.9758243
          ],
          [
            80.2510237,
            12.9756498
          ],
          [
            80.2509654,
            12.9754149
          ],
          [
            80.251,
            12.9759
          ]
        ]
      }
    },
    {
      "type": "Feature",
      "properties": {
        "route_id": 10,
        "from_camera": "CAM04",
        "to_camera": "CAM07",
        "distance_m": 4973.35
      },
      "geometry": {
        "type": "LineString",
        "coordinates": [
          [
            80.251,
            12.9759
          ],
          [
            80.2509654,
            12.9754149
          ],
          [
            80.2509301,
            12.9752962
          ],
          [
            80.2508497,
            12.9750268
          ],
          [
            80.2507832,
            12.9748166
          ],
          [
            80.2507444,
            12.974669
          ],
          [
            80.2506513,
            12.9743767
          ],
          [
            80.2505299,
            12.9739675
          ],
          [
            80.2505299,
            12.9739675
          ],
          [
            80.2504655,
            12.9737375
          ],
          [
            80.2504655,
            12.9737375
          ],
          [
            80.2504409,
            12.9736507
          ],
          [
            80.2504217,
            12.9735793
          ],
          [
            80.2503548,
            12.9733296
          ],
          [
            80.2503177,
            12.9731802
          ],
          [
            80.2503342,
            12.9730437
          ],
          [
            80.250327,
            12.9729472
          ],
          [
            80.2502594,
            12.9725554
          ],
          [
            80.2501746,
            12.9722695
          ],
          [
            80.2507833,
            12.9721957
          ],
          [
            80.2520686,
            12.9720059
          ],
          [
            80.2522962,
            12.9719585
          ],
          [
            80.2520906,
            12.9709321
          ],
          [
            80.2519512,
            12.9702465
          ],
          [
            80.2518524,
            12.9695627
          ],
          [
            80.2517644,
            12.9688909
          ],
          [
            80.2515721,
            12.9679324
          ],
          [
            80.2514165,
            12.9670831
          ],
          [
            80.2514165,
            12.9670831
          ],
          [
            80.2513189,
            12.9666816
          ],
          [
            80.2513189,
            12.9666816
          ],
          [
            80.2512611,
            12.966407
          ],
          [
            80.2512611,
            12.966407
          ],
          [
            80.2511985,
            12.9660926
          ],
          [
            80.2510486,
            12.9650857
          ],
          [
            80.2509842,
            12.9647791
          ],
          [
            80.2509842,
            12.9647791
          ],
          [
            80.2507611,
            12.9636618
          ],
          [
            80.2507611,
            12.9636618
          ],
          [
            80.2502313,
            12.9607825
          ],
          [
            80.2502313,
            12.9607825
          ],
          [
            80.249721,
            12.9578805
          ],
          [
            80.2494754,
            12.9565514
          ],
          [
            80.2493553,
            12.9558488
          ],
          [
            80.2490371,
            12.9542511
          ],
          [
            80.2490205,
            12.9541675
          ],
          [
            80.2489289,
            12.9537032
          ],
          [
            80.2487932,
            12.9530157
          ],
          [
            80.2486343,
            12.9522102
          ],
          [
            80.2485715,
            12.9518795
          ],
          [
            80.248517,
            12.9515931
          ],
          [
            80.248452,
            12.9512757
          ],
          [
            80.2483874,
            12.9510937
          ],
          [
            80.2482186,
            12.9501867
          ],
          [
            80.2481558,
            12.9497731
          ],
          [
            80.2481128,
            12.9496095
          ],
          [
            80.2481128,
            12.9496095
          ],
          [
            80.2485396,
            12.9495699
          ],
          [
            80.2485396,
            12.9495699
          ],
          [
            80.2487833,
            12.9495382
          ],
          [
            80.2487833,
            12.9495382
          ],
          [
            80.2487564,
            12.9492492
          ],
          [
            80.2487564,
            12.9492492
          ],
          [
            80.2486609,
            12.9486155
          ],
          [
            80.2486609,
            12.9486155
          ],
          [
            80.2488988,
            12.9485817
          ],
          [
            80.2488988,
            12.9485817
          ],
          [
            80.2490789,
            12.9485548
          ],
          [
            80.2490789,
            12.9485548
          ],
          [
            80.2492549,
            12.9485247
          ],
          [
            80.2492549,
            12.9485247
          ],
          [
            80.249163,
            12.9478931
          ],
          [
            80.249163,
            12.9478931
          ],
          [
            80.2493715,
            12.9478591
          ],
          [
            80.2493715,
            12.9478591
          ],
          [
            80.2495037,
            12.9478728
          ],
          [
            80.2494997,
            12.9475304
          ],
          [
            80.2495573,
            12.9475014
          ],
          [
            80.2500389,
            12.9474541
          ],
          [
            80.2500389,
            12.9474541
          ],
          [
            80.2500408,
            12.9470469
          ],
          [
            80.2500408,
            12.9470469
          ],
          [
            80.2500389,
            12.9466788
          ],
          [
            80.2500534,
            12.9463827
          ],
          [
            80.2501089,
            12.94615
          ],
          [
            80.2499097,
            12.9461193
          ],
          [
            80.2492255,
            12.9461849
          ],
          [
            80.2492255,
            12.9461849
          ],
          [
            80.2491889,
            12.9459365
          ],
          [
            80.2491889,
            12.9459365
          ],
          [
            80.2491354,
            12.9456523
          ],
          [
            80.2491354,
            12.9456523
          ],
          [
            80.2490744,
            12.9452801
          ],
          [
            80.2490744,
            12.9452801
          ],
          [
            80.2489908,
            12.9447796
          ],
          [
            80.2489908,
            12.9447796
          ],
          [
            80.2481914,
            12.9449646
          ],
          [
            80.2481914,
            12.9449646
          ],
          [
            80.2480363,
            12.9450105
          ],
          [
            80.2480142,
            12.9449149
          ],
          [
            80.2479814,
            12.9447163
          ],
          [
            80.2479778,
            12.9446028
          ],
          [
            80.2479509,
            12.944426
          ],
          [
            80.2479347,
            12.9443509
          ],
          [
            80.2479046,
            12.9442213
          ],
          [
            80.2479046,
            12.9442213
          ],
          [
            80.24787,
            12.9440356
          ],
          [
            80.24787,
            12.9440356
          ],
          [
            80.2478286,
            12.9438335
          ],
          [
            80.247814,
            12.9437704
          ],
          [
            80.2477876,
            12.9436536
          ],
          [
            80.2477876,
            12.9436536
          ],
          [
            80.247752,
            12.9434738
          ],
          [
            80.247752,
            12.9434738
          ],
          [
            80.2477073,
            12.9432616
          ],
          [
            80.2477073,
            12.9432616
          ],
          [
            80.2476658,
            12.9430765
          ],
          [
            80.2476658,
            12.9430765
          ],
          [
            80.2476291,
            12.9428841
          ],
          [
            80.2476291,
            12.9428841
          ],
          [
            80.2475618,
            12.9426868
          ],
          [
            80.2475618,
            12.9426868
          ],
          [
            80.2473741,
            12.9427238
          ],
          [
            80.2473741,
            12.9427238
          ],
          [
            80.2473236,
            12.9424953
          ],
          [
            80.2472501,
            12.942131
          ],
          [
            80.2471192,
            12.941508
          ],
          [
            80.2471192,
            12.941508
          ],
          [
            80.2470376,
            12.9412192
          ],
          [
            80.2470376,
            12.9412192
          ],
          [
            80.2469531,
            12.9407919
          ],
          [
            80.2469531,
            12.9407919
          ],
          [
            80.2476072,
            12.9407068
          ],
          [
            80.2476072,
            12.9407068
          ],
          [
            80.2478115,
            12.9406897
          ],
          [
            80.2478115,
            12.9406897
          ],
          [
            80.2480451,
            12.9406689
          ],
          [
            80.2480451,
            12.9406689
          ],
          [
            80.2482379,
            12.940647
          ],
          [
            80.2481739,
            12.9402904
          ],
          [
            80.2481691,
            12.940265
          ],
          [
            80.2481691,
            12.940265
          ],
          [
            80.2487253,
            12.9401643
          ],
          [
            80.2487253,
            12.9401643
          ],
          [
            80.2487085,
            12.9400652
          ],
          [
            80.2487085,
            12.9400652
          ],
          [
            80.2499206,
            12.9398483
          ],
          [
            80.2499206,
            12.9398483
          ],
          [
            80.2499258,
            12.9398853
          ],
          [
            80.2495,
            12.94
          ]
        ]
      }
    }
  ]
}