{
  "type": "FeatureCollection",
  "features": [
    {
      "type": "Feature",
      "properties": {
        "route_id": 7,
        "starting_node": "CAM01",
        "ending_node": "CAM06",
        "distance_m": 5599.29
      },
      "geometry": {
        "type": "LineString",
        "coordinates": [
          [
            80.205247,
            13.0057538
          ],
          [
            80.2052883,
            13.0054845
          ],
          [
            80.2053407,
            13.005069
          ],
          [
            80.2053897,
            13.0047535
          ],
          [
            80.2054822,
            13.004096
          ],
          [
            80.2055152,
            13.0035492
          ],
          [
            80.2058275,
            13.003593
          ],
          [
            80.2060567,
            13.0035681
          ],
          [
            80.2060916,
            13.0035628
          ],
          [
            80.2066392,
            13.0035188
          ],
          [
            80.2067346,
            13.0035111
          ],
          [
            80.2069119,
            13.0034968
          ],
          [
            80.207029,
            13.0034908
          ],
          [
            80.2074648,
            13.0034952
          ],
          [
            80.2077124,
            13.0034961
          ],
          [
            80.2079546,
            13.003605
          ],
          [
            80.2081021,
            13.0036788
          ],
          [
            80.2085221,
            13.0040454
          ],
          [
            80.2087281,
            13.0044233
          ],
          [
            80.2087717,
            13.0045012
          ],
          [
            80.2088955,
            13.0047915
          ],
          [
            80.2089508,
            13.004909
          ],
          [
            80.2091088,
            13.0052353
          ],
          [
            80.2092001,
            13.0054329
          ],
          [
            80.2092655,
            13.0055906
          ],
          [
            80.2093715,
            13.0058797
          ],
          [
            80.2094516,
            13.0060847
          ],
          [
            80.2094706,
            13.0060792
          ],
          [
            80.2094986,
            13.0060709
          ],
          [
            80.2094738,
            13.0060066
          ],
          [
            80.2092556,
            13.0054027
          ],
          [
            80.2090013,
            13.0048197
          ],
          [
            80.2088749,
            13.004571
          ],
          [
            80.2087411,
            13.0043033
          ],
          [
            80.2086755,
            13.0041694
          ],
          [
            80.2086221,
            13.0040087
          ],
          [
            80.2086153,
            13.0039609
          ],
          [
            80.2086161,
            13.0039141
          ],
          [
            80.2086222,
            13.0038657
          ],
          [
            80.2086489,
            13.0038175
          ],
          [
            80.2086864,
            13.0037705
          ],
          [
            80.2087365,
            13.0037381
          ],
          [
            80.2088048,
            13.0037047
          ],
          [
            80.2089315,
            13.0036677
          ],
          [
            80.2092323,
            13.0036074
          ],
          [
            80.2094977,
            13.0035656
          ],
          [
            80.2097236,
            13.0035498
          ],
          [
            80.2098851,
            13.0035553
          ],
          [
            80.2112851,
            13.0037404
          ],
          [
            80.2115039,
            13.0037947
          ],
          [
            80.2118654,
            13.003795
          ],
          [
            80.2119457,
            13.0037973
          ],
          [
            80.2120421,
            13.0037866
          ],
          [
            80.2120362,
            13.003711
          ],
          [
            80.2120106,
            13.0036069
          ],
          [
            80.2120446,
            13.0034575
          ],
          [
            80.2120627,
            13.0033246
          ],
          [
            80.2120788,
            13.0030788
          ],
          [
            80.212101,
            13.0027314
          ],
          [
            80.2121087,
            13.002593
          ],
          [
            80.2121142,
            13.0025385
          ],
          [
            80.212303,
            13.0021538
          ],
          [
            80.2123313,
            13.0020932
          ],
          [
            80.2124042,
            13.0019842
          ],
          [
            80.212453,
            13.0019136
          ],
          [
            80.212507,
            13.0018355
          ],
          [
            80.2129549,
            13.0012192
          ],
          [
            80.2130865,
            13.0010573
          ],
          [
            80.2131158,
            13.001018
          ],
          [
            80.2131985,
            13.0009268
          ],
          [
            80.2132959,
            13.000809
          ],
          [
            80.2135615,
            13.0004962
          ],
          [
            80.213875,
            13.0001393
          ],
          [
            80.2141515,
            12.9998346
          ],
          [
            80.2142625,
            12.9996978
          ],
          [
            80.2147506,
            12.9991525
          ],
          [
            80.2147692,
            12.9991317
          ],
          [
            80.214772,
            12.9991286
          ],
          [
            80.2149254,
            12.9989537
          ],
          [
            80.2152641,
            12.9985674
          ],
          [
            80.215538,
            12.9982777
          ],
          [
            80.2160004,
            12.9977277
          ],
          [
            80.2161324,
            12.9975774
          ],
          [
            80.2162638,
            12.997438
          ],
          [
            80.2163862,
            12.9973247
          ],
          [
            80.2164696,
            12.9972581
          ],
          [
            80.2165504,
            12.9972089
          ],
          [
            80.2165526,
            12.9971743
          ],
          [
            80.2165718,
            12.9967043
          ],
          [
            80.2166104,
            12.9963977
          ],
          [
            80.2166746,
            12.9960839
          ],
          [
            80.2167353,
            12.9958058
          ],
          [
            80.2169,
            12.9953837
          ],
          [
            80.2169662,
            12.9952475
          ],
          [
            80.2172513,
            12.9948205
          ],
          [
            80.2195487,
            12.9916507
          ],
          [
            80.2195977,
            12.9915857
          ],
          [
            80.2196713,
            12.9914896
          ],
          [
            80.2197766,
            12.9913568
          ],
          [
            80.2200334,
            12.9910125
          ],
          [
            80.2206945,
            12.990178
          ],
          [
            80.2207226,
            12.9901027
          ],
          [
            80.2208592,
            12.9899415
          ],
          [
            80.2209708,
            12.989835
          ],
          [
            80.2211671,
            12.989668
          ],
          [
            80.2213262,
            12.9895414
          ],
          [
            80.2214745,
            12.9894189
          ],
          [
            80.2216446,
            12.9892802
          ],
          [
            80.2220104,
            12.9889818
          ],
          [
            80.2221549,
            12.9888707
          ],
          [
            80.2221745,
            12.9888541
          ],
          [
            80.222389,
            12.9886732
          ],
          [
            80.2223986,
            12.9886651
          ],
          [
            80.2227406,
            12.9882717
          ],
          [
            80.2229244,
            12.9880352
          ],
          [
            80.2230558,
            12.9878444
          ],
          [
            80.223065,
            12.9878213
          ],
          [
            80.2230746,
            12.9877973
          ],
          [
            80.2230826,
            12.9877398
          ],
          [
            80.2230974,
            12.9876327
          ],
          [
            80.2230821,
            12.9873016
          ],
          [
            80.2230567,
            12.9870692
          ],
          [
            80.2229705,
            12.9864666
          ],
          [
            80.2229732,
            12.9861768
          ],
          [
            80.2229796,
            12.9859715
          ],
          [
            80.2230311,
            12.9857206
          ],
          [
            80.2233142,
            12.9854614
          ],
          [
            80.2233058,
            12.985361
          ],
          [
            80.2232618,
            12.9851127
          ],
          [
            80.2232491,
            12.9850804
          ],
          [
            80.2235464,
            12.9850245
          ],
          [
            80.2235659,
            12.9850187
          ],
          [
            80.2235762,
            12.985013
          ],
          [
            80.2235864,
            12.9850025
          ],
          [
            80.2235938,
            12.9849885
          ],
          [
            80.2235943,
            12.9848658
          ],
          [
            80.2236062,
            12.9848381
          ],
          [
            80.2236311,
            12.984813
          ],
          [
            80.223656,
            12.9848043
          ],
          [
            80.2237835,
            12.9848023
          ],
          [
            80.2242405,
            12.9847953
          ],
          [
            80.2242615,
            12.9838423
          ],
          [
            80.2242769,
            12.9832438
          ],
          [
            80.2236363,
            12.9832338
          ],
          [
            80.2236553,
            12.9825453
          ],
          [
            80.2236826,
            12.9818565
          ],
          [
            80.2237031,
            12.9813456
          ],
          [
            80.2237221,
            12.9807753
          ],
          [
            80.223748,
            12.9804221
          ],
          [
            80.2237599,
            12.9801331
          ],
          [
            80.2237868,
            12.9795119
          ],
          [
            80.2244906,
            12.9795298
          ],
          [
            80.2244896,
            12.9790009
          ],
          [
            80.2244943,
            12.9786684
          ],
          [
            80.2246281,
            12.9787367
          ],
          [
            80.2248509,
            12.9788483
          ],
          [
            80.2250409,
            12.9784922
          ],
          [
            80.2250841,
            12.9783943
          ],
          [
            80.2251037,
            12.9784056
          ],
          [
            80.2251212,
            12.9784157
          ],
          [
            80.225212,
            12.9784681
          ],
          [
            80.2252635,
            12.9783717
          ],
          [
            80.2251796,
            12.978324
          ],
          [
            80.2251603,
            12.978313
          ],
          [
            80.2250556,
            12.9782554
          ],
          [
            80.2249459,
            12.9781573
          ],
          [
            80.2246961,
            12.9780111
          ],
          [
            80.223619,
            12.9773685
          ],
          [
            80.2231068,
            12.9770557
          ],
          [
            80.2227846,
            12.976858
          ],
          [
            80.2225008,
            12.9767005
          ],
          [
            80.2222642,
            12.976552
          ],
          [
            80.2221094,
            12.9764588
          ],
          [
            80.2217575,
            12.9762417
          ],
          [
            80.2218618,
            12.9760699
          ],
          [
            80.2219323,
            12.975819
          ],
          [
            80.2219418,
            12.9757854
          ],
          [
            80.2219517,
            12.9757501
          ]
        ]
      }
    }
  ]
}